[{"OBJECT_NAME":"ONEWEB-0138","OBJECT_ID":"2020-100AC","EPOCH":"2026-05-02T01:55:08.086080","MEAN_MOTION":13.12444046,"ECCENTRICITY":0.0001699,"INCLINATION":87.8991,"RA_OF_ASC_NODE":359.8284,"ARG_OF_PERICENTER":74.4214,"MEAN_ANOMALY":285.7102,"EPHEMERIS_TYPE":0,"CLASSIFICATION_TYPE":"U","NORAD_CAT_ID":47284,"ELEMENT_SET_NO":999,"REV_AT_EPOCH":25860,"BSTAR":-0.00067387,"MEAN_MOTION_DOT":-2.3e-06,"MEAN_MOTION_DDOT":0.0},{"OBJECT_NAME":"ONEWEB-0139","OBJECT_ID":"2020-100AD","EPOCH":"2026-05-02T02:53:53.183616","MEAN_MOTION":13.12441132,"ECCENTRICITY":0.0001754,"INCLINATION":87.8986,"RA_OF_ASC_NODE":359.8072,"ARG_OF_PERICENTER":80.2175,"MEAN_ANOMALY":279.9151,"EPHEMERIS_TYPE":0,"CLASSIFICATION_TYPE":"U","NORAD_CAT_ID":47285,"ELEMENT_SET_NO":999,"REV_AT_EPOCH":25868,"BSTAR":0.00085847,"MEAN_MOTION_DOT":3.22e-06,"MEAN_MOTION_DDOT":0.0},{"OBJECT_NAME":"ONEWEB-0140","OBJECT_ID":"2020-100AE","EPOCH":"2026-05-02T03:37:33.868416","MEAN_MOTION":13.12444474,"ECCENTRICITY":0.0001923,"INCLINATION":87.8993,"RA_OF_ASC_NODE":359.7906,"ARG_OF_PERICENTER":79.8944,"MEAN_ANOMALY":280.2401,"EPHEMERIS_TYPE":0,"CLASSIFICATION_TYPE":"U","NORAD_CAT_ID":47286,"ELEMENT_SET_NO":999,"REV_AT_EPOCH":25865,"BSTAR":-0.0007858800000000001,"MEAN_MOTION_DOT":-2.7e-06,"MEAN_MOTION_DDOT":0.0},{"OBJECT_NAME":"ONEWEB-0141","OBJECT_ID":"2020-100AF","EPOCH":"2026-05-02T01:03:41.249088","MEAN_MOTION":13.12443232,"ECCENTRICITY":0.0001585,"INCLINATION":87.8991,"RA_OF_ASC_NODE":359.8178,"ARG_OF_PERICENTER":90.8947,"MEAN_ANOMALY":269.2363,"EPHEMERIS_TYPE":0,"CLASSIFICATION_TYPE":"U","NORAD_CAT_ID":47287,"ELEMENT_SET_NO":999,"REV_AT_EPOCH":25862,"BSTAR":0.00096807,"MEAN_MOTION_DOT":3.61e-06,"MEAN_MOTION_DDOT":0.0},{"OBJECT_NAME":"ONEWEB-0142","OBJECT_ID":"2020-100AG","EPOCH":"2026-05-02T04:26:32.626176","MEAN_MOTION":13.1245442,"ECCENTRICITY":0.0001389,"INCLINATION":87.8982,"RA_OF_ASC_NODE":359.8136,"ARG_OF_PERICENTER":85.4076,"MEAN_ANOMALY":274.7211,"EPHEMERIS_TYPE":0,"CLASSIFICATION_TYPE":"U","NORAD_CAT_ID":47288,"ELEMENT_SET_NO":999,"REV_AT_EPOCH":25863,"BSTAR":-0.0037985999999999996,"MEAN_MOTION_DOT":-1.354e-05,"MEAN_MOTION_DDOT":0.0},{"OBJECT_NAME":"ONEWEB-0143","OBJECT_ID":"2020-100AH","EPOCH":"2026-05-01T21:21:53.073504","MEAN_MOTION":13.12442777,"ECCENTRICITY":0.0001734,"INCLINATION":87.8989,"RA_OF_ASC_NODE":359.8689,"ARG_OF_PERICENTER":82.129,"MEAN_ANOMALY":278.0035,"EPHEMERIS_TYPE":0,"CLASSIFICATION_TYPE":"U","NORAD_CAT_ID":47289,"ELEMENT_SET_NO":999,"REV_AT_EPOCH":25857,"BSTAR":0.0007889,"MEAN_MOTION_DOT":2.97e-06,"MEAN_MOTION_DDOT":0.0},{"OBJECT_NAME":"ONEWEB-0144","OBJECT_ID":"2020-100AJ","EPOCH":"2026-05-02T02:09:44.577792","MEAN_MOTION":13.1242887,"ECCENTRICITY":0.0001576,"INCLINATION":87.8996,"RA_OF_ASC_NODE":359.8011,"ARG_OF_PERICENTER":72.1429,"MEAN_ANOMALY":287.9871,"EPHEMERIS_TYPE":0,"CLASSIFICATION_TYPE":"U","NORAD_CAT_ID":47290,"ELEMENT_SET_NO":999,"REV_AT_EPOCH":25852,"BSTAR":0.009010200000000001,"MEAN_MOTION_DOT":3.255e-05,"MEAN_MOTION_DDOT":0.0},{"OBJECT_NAME":"ONEWEB-0145","OBJECT_ID":"2020-100AK","EPOCH":"2026-05-02T03:18:03.331584","MEAN_MOTION":13.12443038,"ECCENTRICITY":0.0001665,"INCLINATION":87.8979,"RA_OF_ASC_NODE":359.8245,"ARG_OF_PERICENTER":79.7664,"MEAN_ANOMALY":280.3652,"EPHEMERIS_TYPE":0,"CLASSIFICATION_TYPE":"U","NORAD_CAT_ID":47291,"ELEMENT_SET_NO":999,"REV_AT_EPOCH":25872,"BSTAR":-0.00052114,"MEAN_MOTION_DOT":-1.75e-06,"MEAN_MOTION_DDOT":0.0},{"OBJECT_NAME":"ONEWEB-0146","OBJECT_ID":"2020-100AL","EPOCH":"2026-05-02T03:13:10.540992","MEAN_MOTION":13.12442686,"ECCENTRICITY":0.0002097,"INCLINATION":87.8989,"RA_OF_ASC_NODE":359.8137,"ARG_OF_PERICENTER":83.8232,"MEAN_ANOMALY":276.3135,"EPHEMERIS_TYPE":0,"CLASSIFICATION_TYPE":"U","NORAD_CAT_ID":47292,"ELEMENT_SET_NO":999,"REV_AT_EPOCH":25863,"BSTAR":-0.00029509999999999996,"MEAN_MOTION_DOT":-9.3e-07,"MEAN_MOTION_DDOT":0.0},{"OBJECT_NAME":"ONEWEB-0147","OBJECT_ID":"2020-100AM","EPOCH":"2026-05-02T04:14:10.140000","MEAN_MOTION":13.12444632,"ECCENTRICITY":0.0001841,"INCLINATION":87.8988,"RA_OF_ASC_NODE":359.7862,"ARG_OF_PERICENTER":76.7782,"MEAN_ANOMALY":283.3552,"EPHEMERIS_TYPE":0,"CLASSIFICATION_TYPE":"U","NORAD_CAT_ID":47293,"ELEMENT_SET_NO":999,"REV_AT_EPOCH":25853,"BSTAR":0.0010589,"MEAN_MOTION_DOT":3.94e-06,"MEAN_MOTION_DDOT":0.0},{"OBJECT_NAME":"ONEWEB-0115","OBJECT_ID":"2021-025A","EPOCH":"2026-05-02T02:07:07.206240","MEAN_MOTION":13.13470765,"ECCENTRICITY":0.0001793,"INCLINATION":87.8964,"RA_OF_ASC_NODE":329.4058,"ARG_OF_PERICENTER":86.3035,"MEAN_ANOMALY":273.8299,"EPHEMERIS_TYPE":0,"CLASSIFICATION_TYPE":"U","NORAD_CAT_ID":48042,"ELEMENT_SET_NO":999,"REV_AT_EPOCH":24754,"BSTAR":0.0005937000000000001,"MEAN_MOTION_DOT":2.3e-06,"MEAN_MOTION_DDOT":0.0},{"OBJECT_NAME":"ONEWEB-0152","OBJECT_ID":"2021-025B","EPOCH":"2026-05-02T00:36:55.772928","MEAN_MOTION":13.1346977,"ECCENTRICITY":0.0001887,"INCLINATION":87.8955,"RA_OF_ASC_NODE":329.4163,"ARG_OF_PERICENTER":86.695,"MEAN_ANOMALY":273.4395,"EPHEMERIS_TYPE":0,"CLASSIFICATION_TYPE":"U","NORAD_CAT_ID":48043,"ELEMENT_SET_NO":999,"REV_AT_EPOCH":24749,"BSTAR":0.0010355,"MEAN_MOTION_DOT":3.91e-06,"MEAN_MOTION_DDOT":0.0},{"OBJECT_NAME":"ONEWEB-0153","OBJECT_ID":"2021-025C","EPOCH":"2026-05-02T01:54:55.257408","MEAN_MOTION":13.1347125,"ECCENTRICITY":0.0001676,"INCLINATION":87.8952,"RA_OF_ASC_NODE":329.4097,"ARG_OF_PERICENTER":86.9682,"MEAN_ANOMALY":273.1638,"EPHEMERIS_TYPE":0,"CLASSIFICATION_TYPE":"U","NORAD_CAT_ID":48044,"ELEMENT_SET_NO":999,"REV_AT_EPOCH":24749,"BSTAR":2.4435000000000002e-05,"MEAN_MOTION_DOT":2.2e-07,"MEAN_MOTION_DDOT":0.0},{"OBJECT_NAME":"ONEWEB-0154","OBJECT_ID":"2021-025D","EPOCH":"2026-05-02T01:50:01.963104","MEAN_MOTION":13.13470377,"ECCENTRICITY":0.0001779,"INCLINATION":87.8952,"RA_OF_ASC_NODE":329.408,"ARG_OF_PERICENTER":83.8221,"MEAN_ANOMALY":276.3111,"EPHEMERIS_TYPE":0,"CLASSIFICATION_TYPE":"U","NORAD_CAT_ID":48045,"ELEMENT_SET_NO":999,"REV_AT_EPOCH":24745,"BSTAR":-0.00024294,"MEAN_MOTION_DOT":-7.6e-07,"MEAN_MOTION_DDOT":0.0},{"OBJECT_NAME":"ONEWEB-0116","OBJECT_ID":"2021-025E","EPOCH":"2026-05-01T23:06:43.759872","MEAN_MOTION":13.13469687,"ECCENTRICITY":0.0001893,"INCLINATION":87.8966,"RA_OF_ASC_NODE":329.4235,"ARG_OF_PERICENTER":86.0303,"MEAN_ANOMALY":274.1042,"EPHEMERIS_TYPE":0,"CLASSIFICATION_TYPE":"U","NORAD_CAT_ID":48046,"ELEMENT_SET_NO":999,"REV_AT_EPOCH":24758,"BSTAR":0.00046995,"MEAN_MOTION_DOT":1.84e-06,"MEAN_MOTION_DDOT":0.0},{"OBJECT_NAME":"ONEWEB-0150","OBJECT_ID":"2021-025F","EPOCH":"2026-05-02T02:11:59.697024","MEAN_MOTION":13.13470771,"ECCENTRICITY":0.0001692,"INCLINATION":87.8962,"RA_OF_ASC_NODE":329.3955,"ARG_OF_PERICENTER":93.021,"MEAN_ANOMALY":267.1112,"EPHEMERIS_TYPE":0,"CLASSIFICATION_TYPE":"U","NORAD_CAT_ID":48047,"ELEMENT_SET_NO":999,"REV_AT_EPOCH":24749,"BSTAR":0.0009224799999999999,"MEAN_MOTION_DOT":3.5e-06,"MEAN_MOTION_DDOT":0.0}]