ONEWEB-0138             
1 47284U 20100AC  26122.07995470 -.00000230  00000+0 -67387-3 0  9992
2 47284  87.8991 359.8284 0001699  74.4214 285.7102 13.12444046258600
ONEWEB-0139             
1 47285U 20100AD  26122.12075444  .00000322  00000+0  85847-3 0  9990
2 47285  87.8986 359.8072 0001754  80.2175 279.9151 13.12441132258683
ONEWEB-0140             
1 47286U 20100AE  26122.15108644 -.00000270  00000+0 -78588-3 0  9991
2 47286  87.8993 359.7906 0001923  79.8944 280.2401 13.12444474258655
ONEWEB-0141             
1 47287U 20100AF  26122.04422742  .00000361  00000+0  96807-3 0  9991
2 47287  87.8991 359.8178 0001585  90.8947 269.2363 13.12443232258628
ONEWEB-0142             
1 47288U 20100AG  26122.18509984 -.00001354  00000+0 -37986-2 0  9998
2 47288  87.8982 359.8136 0001389  85.4076 274.7211 13.12454420258633
ONEWEB-0143             
1 47289U 20100AH  26121.89019761  .00000297  00000+0  78890-3 0  9998
2 47289  87.8989 359.8689 0001734  82.1290 278.0035 13.12442777258576
ONEWEB-0144             
1 47290U 20100AJ  26122.09009928  .00003255  00000+0  90102-2 0  9993
2 47290  87.8996 359.8011 0001576  72.1429 287.9871 13.12428870258522
ONEWEB-0145             
1 47291U 20100AK  26122.13753856 -.00000175  00000+0 -52114-3 0  9997
2 47291  87.8979 359.8245 0001665  79.7664 280.3652 13.12443038258725
ONEWEB-0146             
1 47292U 20100AL  26122.13414978 -.00000093  00000+0 -29510-3 0  9990
2 47292  87.8989 359.8137 0002097  83.8232 276.3135 13.12442686258633
ONEWEB-0147             
1 47293U 20100AM  26122.17650625  .00000394  00000+0  10589-2 0  9993
2 47293  87.8988 359.7862 0001841  76.7782 283.3552 13.12444632258537
ONEWEB-0115             
1 48042U 21025A   26122.08827785  .00000230  00000+0  59370-3 0  9997
2 48042  87.8964 329.4058 0001793  86.3035 273.8299 13.13470765247547
ONEWEB-0152             
1 48043U 21025B   26122.02564552  .00000391  00000+0  10355-2 0  9999
2 48043  87.8955 329.4163 0001887  86.6950 273.4395 13.13469770247499
ONEWEB-0153             
1 48044U 21025C   26122.07980622  .00000022  00000+0  24435-4 0  9992
2 48044  87.8952 329.4097 0001676  86.9682 273.1638 13.13471250247497
ONEWEB-0154             
1 48045U 21025D   26122.07641161 -.00000076  00000+0 -24294-3 0  9998
2 48045  87.8952 329.4080 0001779  83.8221 276.3111 13.13470377247455
ONEWEB-0116             
1 48046U 21025E   26121.96300648  .00000184  00000+0  46995-3 0  9998
2 48046  87.8966 329.4235 0001893  86.0303 274.1042 13.13469687247581
ONEWEB-0150             
1 48047U 21025F   26122.09166316  .00000350  00000+0  92248-3 0  9993
2 48047  87.8962 329.3955 0001692  93.0210 267.1112 13.13470771247494
